ORBCOMM-X               
1 21576U 91050C   25309.45423329  .00000429  00000+0  13975-3 0  9999
2 21576  98.3278  13.0674 0004735 113.5745 246.5943 14.43386704802492
ORBCOMM FM01            
1 23545U 95017A   25309.76241231  .00009201  00000+0  90874-3 0  9998
2 23545  69.9623  80.6245 0000511 121.6381 238.4825 14.92209538633614
ORBCOMM FM02            
1 23546U 95017B   25309.87320225  .00013683  00000+0  13019-2 0  9996
2 23546  69.9623  99.1794 0002157 110.9691 249.1696 14.93544819633296
ORBCOMM FM08            
1 25112U 97084A   25309.67067597  .00002224  00000+0  65326-3 0  9999
2 25112  45.0140  48.4282 0008001 240.4844 119.5210 14.46371160461856
ORBCOMM FM10            
1 25113U 97084B   25309.67338130  .00001824  00000+0  54555-3 0  9991
2 25113  45.0152  51.0516 0006516 213.4486 146.5954 14.46138393636994
ORBCOMM FM11            
1 25114U 97084C   25309.70278967  .00001986  00000+0  59363-3 0  9998
2 25114  45.0138  51.8041 0007325 214.2701 145.7679 14.45877257461953
ORBCOMM FM12            
1 25115U 97084D   25309.73242497  .00001964  00000+0  58740-3 0  9995
2 25115  45.0145  51.3984 0006388 212.3664 147.6797 14.45899603461757
ORBCOMM FM09            
1 25116U 97084E   25309.63948258  .00002027  00000+0  60650-3 0  9997
2 25116  45.0150  52.9267 0007468 202.9057 157.1462 14.45755488461944
