<?xml version="1.0" encoding="UTF-8"?>
<ndm xmlns:xsi="http://www.w3.org/2001/XMLSchema-instance" xsi:noNamespaceSchemaLocation="https://sanaregistry.org/r/ndmxml_unqualified/ndmxml-2.0.0-master-2.0.xsd">
<omm id="CCSDS_OMM_VERS" version="2.0">
<header><CREATION_DATE/><ORIGINATOR/></header><body><segment><metadata><OBJECT_NAME>ORBCOMM-X</OBJECT_NAME><OBJECT_ID>1991-050C</OBJECT_ID><CENTER_NAME>EARTH</CENTER_NAME><REF_FRAME>TEME</REF_FRAME><TIME_SYSTEM>UTC</TIME_SYSTEM><MEAN_ELEMENT_THEORY>SGP4</MEAN_ELEMENT_THEORY></metadata><data><meanElements><EPOCH>2025-11-05T10:54:05.756256</EPOCH><MEAN_MOTION>14.43386704</MEAN_MOTION><ECCENTRICITY>.00047356</ECCENTRICITY><INCLINATION>98.3278</INCLINATION><RA_OF_ASC_NODE>13.0674</RA_OF_ASC_NODE><ARG_OF_PERICENTER>113.5745</ARG_OF_PERICENTER><MEAN_ANOMALY>246.5943</MEAN_ANOMALY></meanElements><tleParameters><EPHEMERIS_TYPE>0</EPHEMERIS_TYPE><CLASSIFICATION_TYPE>U</CLASSIFICATION_TYPE><NORAD_CAT_ID>21576</NORAD_CAT_ID><ELEMENT_SET_NO>999</ELEMENT_SET_NO><REV_AT_EPOCH>80249</REV_AT_EPOCH><BSTAR>.13975327E-3</BSTAR><MEAN_MOTION_DOT>.429E-5</MEAN_MOTION_DOT><MEAN_MOTION_DDOT>0</MEAN_MOTION_DDOT></tleParameters></data></segment></body></omm>
<omm id="CCSDS_OMM_VERS" version="2.0">
<header><CREATION_DATE/><ORIGINATOR/></header><body><segment><metadata><OBJECT_NAME>ORBCOMM FM01</OBJECT_NAME><OBJECT_ID>1995-017A</OBJECT_ID><CENTER_NAME>EARTH</CENTER_NAME><REF_FRAME>TEME</REF_FRAME><TIME_SYSTEM>UTC</TIME_SYSTEM><MEAN_ELEMENT_THEORY>SGP4</MEAN_ELEMENT_THEORY></metadata><data><meanElements><EPOCH>2025-11-05T18:17:52.423584</EPOCH><MEAN_MOTION>14.92209538</MEAN_MOTION><ECCENTRICITY>.00005113</ECCENTRICITY><INCLINATION>69.9623</INCLINATION><RA_OF_ASC_NODE>80.6245</RA_OF_ASC_NODE><ARG_OF_PERICENTER>121.6381</ARG_OF_PERICENTER><MEAN_ANOMALY>238.4825</MEAN_ANOMALY></meanElements><tleParameters><EPHEMERIS_TYPE>0</EPHEMERIS_TYPE><CLASSIFICATION_TYPE>U</CLASSIFICATION_TYPE><NORAD_CAT_ID>23545</NORAD_CAT_ID><ELEMENT_SET_NO>999</ELEMENT_SET_NO><REV_AT_EPOCH>63361</REV_AT_EPOCH><BSTAR>.90873732E-3</BSTAR><MEAN_MOTION_DOT>.9201E-4</MEAN_MOTION_DOT><MEAN_MOTION_DDOT>0</MEAN_MOTION_DDOT></tleParameters></data></segment></body></omm>
<omm id="CCSDS_OMM_VERS" version="2.0">
<header><CREATION_DATE/><ORIGINATOR/></header><body><segment><metadata><OBJECT_NAME>ORBCOMM FM02</OBJECT_NAME><OBJECT_ID>1995-017B</OBJECT_ID><CENTER_NAME>EARTH</CENTER_NAME><REF_FRAME>TEME</REF_FRAME><TIME_SYSTEM>UTC</TIME_SYSTEM><MEAN_ELEMENT_THEORY>SGP4</MEAN_ELEMENT_THEORY></metadata><data><meanElements><EPOCH>2025-11-05T20:57:24.674400</EPOCH><MEAN_MOTION>14.93544819</MEAN_MOTION><ECCENTRICITY>.00021575</ECCENTRICITY><INCLINATION>69.9623</INCLINATION><RA_OF_ASC_NODE>99.1794</RA_OF_ASC_NODE><ARG_OF_PERICENTER>110.9691</ARG_OF_PERICENTER><MEAN_ANOMALY>249.1696</MEAN_ANOMALY></meanElements><tleParameters><EPHEMERIS_TYPE>0</EPHEMERIS_TYPE><CLASSIFICATION_TYPE>U</CLASSIFICATION_TYPE><NORAD_CAT_ID>23546</NORAD_CAT_ID><ELEMENT_SET_NO>999</ELEMENT_SET_NO><REV_AT_EPOCH>63329</REV_AT_EPOCH><BSTAR>.13019354E-2</BSTAR><MEAN_MOTION_DOT>.13683E-3</MEAN_MOTION_DOT><MEAN_MOTION_DDOT>0</MEAN_MOTION_DDOT></tleParameters></data></segment></body></omm>
<omm id="CCSDS_OMM_VERS" version="2.0">
<header><CREATION_DATE/><ORIGINATOR/></header><body><segment><metadata><OBJECT_NAME>ORBCOMM FM08</OBJECT_NAME><OBJECT_ID>1997-084A</OBJECT_ID><CENTER_NAME>EARTH</CENTER_NAME><REF_FRAME>TEME</REF_FRAME><TIME_SYSTEM>UTC</TIME_SYSTEM><MEAN_ELEMENT_THEORY>SGP4</MEAN_ELEMENT_THEORY></metadata><data><meanElements><EPOCH>2025-11-05T16:05:46.403808</EPOCH><MEAN_MOTION>14.46371160</MEAN_MOTION><ECCENTRICITY>.00080018</ECCENTRICITY><INCLINATION>45.0140</INCLINATION><RA_OF_ASC_NODE>48.4282</RA_OF_ASC_NODE><ARG_OF_PERICENTER>240.4844</ARG_OF_PERICENTER><MEAN_ANOMALY>119.5210</MEAN_ANOMALY></meanElements><tleParameters><EPHEMERIS_TYPE>0</EPHEMERIS_TYPE><CLASSIFICATION_TYPE>U</CLASSIFICATION_TYPE><NORAD_CAT_ID>25112</NORAD_CAT_ID><ELEMENT_SET_NO>999</ELEMENT_SET_NO><REV_AT_EPOCH>46185</REV_AT_EPOCH><BSTAR>.65325882E-3</BSTAR><MEAN_MOTION_DOT>.2224E-4</MEAN_MOTION_DOT><MEAN_MOTION_DDOT>0</MEAN_MOTION_DDOT></tleParameters></data></segment></body></omm>
<omm id="CCSDS_OMM_VERS" version="2.0">
<header><CREATION_DATE/><ORIGINATOR/></header><body><segment><metadata><OBJECT_NAME>ORBCOMM FM10</OBJECT_NAME><OBJECT_ID>1997-084B</OBJECT_ID><CENTER_NAME>EARTH</CENTER_NAME><REF_FRAME>TEME</REF_FRAME><TIME_SYSTEM>UTC</TIME_SYSTEM><MEAN_ELEMENT_THEORY>SGP4</MEAN_ELEMENT_THEORY></metadata><data><meanElements><EPOCH>2025-11-05T16:09:40.144320</EPOCH><MEAN_MOTION>14.46138393</MEAN_MOTION><ECCENTRICITY>.00065165</ECCENTRICITY><INCLINATION>45.0152</INCLINATION><RA_OF_ASC_NODE>51.0516</RA_OF_ASC_NODE><ARG_OF_PERICENTER>213.4486</ARG_OF_PERICENTER><MEAN_ANOMALY>146.5954</MEAN_ANOMALY></meanElements><tleParameters><EPHEMERIS_TYPE>0</EPHEMERIS_TYPE><CLASSIFICATION_TYPE>U</CLASSIFICATION_TYPE><NORAD_CAT_ID>25113</NORAD_CAT_ID><ELEMENT_SET_NO>999</ELEMENT_SET_NO><REV_AT_EPOCH>63699</REV_AT_EPOCH><BSTAR>.54555291E-3</BSTAR><MEAN_MOTION_DOT>.1824E-4</MEAN_MOTION_DOT><MEAN_MOTION_DDOT>0</MEAN_MOTION_DDOT></tleParameters></data></segment></body></omm>
<omm id="CCSDS_OMM_VERS" version="2.0">
<header><CREATION_DATE/><ORIGINATOR/></header><body><segment><metadata><OBJECT_NAME>ORBCOMM FM11</OBJECT_NAME><OBJECT_ID>1997-084C</OBJECT_ID><CENTER_NAME>EARTH</CENTER_NAME><REF_FRAME>TEME</REF_FRAME><TIME_SYSTEM>UTC</TIME_SYSTEM><MEAN_ELEMENT_THEORY>SGP4</MEAN_ELEMENT_THEORY></metadata><data><meanElements><EPOCH>2025-11-05T16:52:01.027488</EPOCH><MEAN_MOTION>14.45877257</MEAN_MOTION><ECCENTRICITY>.00073252</ECCENTRICITY><INCLINATION>45.0138</INCLINATION><RA_OF_ASC_NODE>51.8041</RA_OF_ASC_NODE><ARG_OF_PERICENTER>214.2701</ARG_OF_PERICENTER><MEAN_ANOMALY>145.7679</MEAN_ANOMALY></meanElements><tleParameters><EPHEMERIS_TYPE>0</EPHEMERIS_TYPE><CLASSIFICATION_TYPE>U</CLASSIFICATION_TYPE><NORAD_CAT_ID>25114</NORAD_CAT_ID><ELEMENT_SET_NO>999</ELEMENT_SET_NO><REV_AT_EPOCH>46195</REV_AT_EPOCH><BSTAR>.59363314E-3</BSTAR><MEAN_MOTION_DOT>.1986E-4</MEAN_MOTION_DOT><MEAN_MOTION_DDOT>0</MEAN_MOTION_DDOT></tleParameters></data></segment></body></omm>
<omm id="CCSDS_OMM_VERS" version="2.0">
<header><CREATION_DATE/><ORIGINATOR/></header><body><segment><metadata><OBJECT_NAME>ORBCOMM FM12</OBJECT_NAME><OBJECT_ID>1997-084D</OBJECT_ID><CENTER_NAME>EARTH</CENTER_NAME><REF_FRAME>TEME</REF_FRAME><TIME_SYSTEM>UTC</TIME_SYSTEM><MEAN_ELEMENT_THEORY>SGP4</MEAN_ELEMENT_THEORY></metadata><data><meanElements><EPOCH>2025-11-05T17:34:41.517408</EPOCH><MEAN_MOTION>14.45899603</MEAN_MOTION><ECCENTRICITY>.00063886</ECCENTRICITY><INCLINATION>45.0145</INCLINATION><RA_OF_ASC_NODE>51.3984</RA_OF_ASC_NODE><ARG_OF_PERICENTER>212.3664</ARG_OF_PERICENTER><MEAN_ANOMALY>147.6797</MEAN_ANOMALY></meanElements><tleParameters><EPHEMERIS_TYPE>0</EPHEMERIS_TYPE><CLASSIFICATION_TYPE>U</CLASSIFICATION_TYPE><NORAD_CAT_ID>25115</NORAD_CAT_ID><ELEMENT_SET_NO>999</ELEMENT_SET_NO><REV_AT_EPOCH>46175</REV_AT_EPOCH><BSTAR>.58740043E-3</BSTAR><MEAN_MOTION_DOT>.1964E-4</MEAN_MOTION_DOT><MEAN_MOTION_DDOT>0</MEAN_MOTION_DDOT></tleParameters></data></segment></body></omm>
<omm id="CCSDS_OMM_VERS" version="2.0">
<header><CREATION_DATE/><ORIGINATOR/></header><body><segment><metadata><OBJECT_NAME>ORBCOMM FM09</OBJECT_NAME><OBJECT_ID>1997-084E</OBJECT_ID><CENTER_NAME>EARTH</CENTER_NAME><REF_FRAME>TEME</REF_FRAME><TIME_SYSTEM>UTC</TIME_SYSTEM><MEAN_ELEMENT_THEORY>SGP4</MEAN_ELEMENT_THEORY></metadata><data><meanElements><EPOCH>2025-11-05T15:20:51.294912</EPOCH><MEAN_MOTION>14.45755488</MEAN_MOTION><ECCENTRICITY>.0007468</ECCENTRICITY><INCLINATION>45.0150</INCLINATION><RA_OF_ASC_NODE>52.9267</RA_OF_ASC_NODE><ARG_OF_PERICENTER>202.9057</ARG_OF_PERICENTER><MEAN_ANOMALY>157.1462</MEAN_ANOMALY></meanElements><tleParameters><EPHEMERIS_TYPE>0</EPHEMERIS_TYPE><CLASSIFICATION_TYPE>U</CLASSIFICATION_TYPE><NORAD_CAT_ID>25116</NORAD_CAT_ID><ELEMENT_SET_NO>999</ELEMENT_SET_NO><REV_AT_EPOCH>46194</REV_AT_EPOCH><BSTAR>.60650091E-3</BSTAR><MEAN_MOTION_DOT>.2027E-4</MEAN_MOTION_DOT><MEAN_MOTION_DDOT>0</MEAN_MOTION_DDOT></tleParameters></data></segment></body></omm>

</ndm>
